STARLINK-31854          
1 59671U 24084T   26068.19050437 -.00001560  00000+0 -47182-4 0  9996
2 59671  43.0013  11.5905 0001004 261.0154  99.0584 15.27575810104658
FLOCK 4G-3              
1 62639U 25009AG  26068.80174065  .00011494  00000+0  43389-3 0  9993
2 62639  97.4062 151.4068 0001320 293.2042  66.9058 15.27179310 63727
